{
  "type": "FeatureCollection",
  "features": [
    {
      "type": "Feature",
      "properties": {
        "norad_id": 29850,
        "name": "FENGYUN 1C DEB",
        "group": "fengyun-1c-debris",
        "lat": -40.83870001754877,
        "lon": 77.62132059587691,
        "alt_km": 908.0544102603399,
        "timestamp": "2025-12-02T23:34:15.788133+00:00",
        "meta_object_name": "FENGYUN 1C DEB",
        "meta_object_id": "1999-025EU",
        "meta_epoch": "2025-12-02T09:23:44.537280",
        "meta_mean_motion": 13.99791679,
        "meta_eccentricity": 0.0103286,
        "meta_inclination": 98.1213,
        "meta_ra_of_asc_node": 264.1864,
        "meta_arg_of_pericenter": 318.8894,
        "meta_mean_anomaly": 168.8282,
        "meta_ephemeris_type": 0,
        "meta_classification_type": "U",
        "meta_norad_cat_id": 29850,
        "meta_element_set_no": 999,
        "meta_rev_at_epoch": 95875,
        "meta_bstar": 0.0017029,
        "meta_mean_motion_dot": 2.576e-05,
        "meta_mean_motion_ddot": 0,
        "tle_line1": "1 29850U 99025EU  25336.39148770  .00002576  00000+0  17029-2 0  9997",
        "tle_line2": "2 29850  98.1213 264.1864 0103286 318.8894 168.8282 13.99791679958752"
      },
      "geometry": {
        "type": "Point",
        "coordinates": [
          77.62132059587691,
          -40.83870001754877
        ]
      }
    },
    {
      "type": "Feature",
      "properties": {
        "norad_id": 29851,
        "name": "FENGYUN 1C DEB",
        "group": "fengyun-1c-debris",
        "lat": 19.089435200163088,
        "lon": 14.366857759428648,
        "alt_km": 1011.5548704366411,
        "timestamp": "2025-12-02T23:34:15.788143+00:00",
        "meta_object_name": "FENGYUN 1C DEB",
        "meta_object_id": "1999-025EV",
        "meta_epoch": "2025-12-02T02:58:01.789248",
        "meta_mean_motion": 13.83585072,
        "meta_eccentricity": 0.01418628,
        "meta_inclination": 99.5856,
        "meta_ra_of_asc_node": 16.8447,
        "meta_arg_of_pericenter": 255.6467,
        "meta_mean_anomaly": 168.6863,
        "meta_ephemeris_type": 0,
        "meta_classification_type": "U",
        "meta_norad_cat_id": 29851,
        "meta_element_set_no": 999,
        "meta_rev_at_epoch": 95220,
        "meta_bstar": 0.00038873876,
        "meta_mean_motion_dot": 4.16e-06,
        "meta_mean_motion_ddot": 0,
        "tle_line1": "1 29851U 99025EV  25336.12363182  .00000416  00000+0  38874-3 0  9998",
        "tle_line2": "2 29851  99.5856  16.8447 0141862 255.6467 168.6863 13.83585072952204"
      },
      "geometry": {
        "type": "Point",
        "coordinates": [
          14.366857759428648,
          19.089435200163088
        ]
      }
    },
    {
      "type": "Feature",
      "properties": {
        "norad_id": 29852,
        "name": "FENGYUN 1C DEB",
        "group": "fengyun-1c-debris",
        "lat": 70.6316753890489,
        "lon": -165.56455835732052,
        "alt_km": 828.0181526029937,
        "timestamp": "2025-12-02T23:34:15.788153+00:00",
        "meta_object_name": "FENGYUN 1C DEB",
        "meta_object_id": "1999-025EW",
        "meta_epoch": "2025-12-02T11:50:49.695936",
        "meta_mean_motion": 14.06976604,
        "meta_eccentricity": 0.013522,
        "meta_inclination": 99.3717,
        "meta_ra_of_asc_node": 345.909,
        "meta_arg_of_pericenter": 178.2591,
        "meta_mean_anomaly": 337.2389,
        "meta_ephemeris_type": 0,
        "meta_classification_type": "U",
        "meta_norad_cat_id": 29852,
        "meta_element_set_no": 999,
        "meta_rev_at_epoch": 95840,
        "meta_bstar": 0.0022259,
        "meta_mean_motion_dot": 3.991e-05,
        "meta_mean_motion_ddot": 0,
        "tle_line1": "1 29852U 99025EW  25336.49363074  .00003991  00000+0  22259-2 0  9999",
        "tle_line2": "2 29852  99.3717 345.9090 0135220 178.2591 337.2389 14.06976604958404"
      },
      "geometry": {
        "type": "Point",
        "coordinates": [
          -165.56455835732052,
          70.6316753890489
        ]
      }
    },
    {
      "type": "Feature",
      "properties": {
        "norad_id": 29853,
        "name": "FENGYUN 1C DEB",
        "group": "fengyun-1c-debris",
        "lat": 9.685477894417012,
        "lon": 97.9526287847131,
        "alt_km": 975.0108044248118,
        "timestamp": "2025-12-02T23:34:15.788163+00:00",
        "meta_object_name": "FENGYUN 1C DEB",
        "meta_object_id": "1999-025EX",
        "meta_epoch": "2025-12-02T08:01:00.736320",
        "meta_mean_motion": 13.93725102,
        "meta_eccentricity": 0.0160923,
        "meta_inclination": 98.4575,
        "meta_ra_of_asc_node": 98.8144,
        "meta_arg_of_pericenter": 251.3676,
        "meta_mean_anomaly": 106.9955,
        "meta_ephemeris_type": 0,
        "meta_classification_type": "U",
        "meta_norad_cat_id": 29853,
        "meta_element_set_no": 999,
        "meta_rev_at_epoch": 95524,
        "meta_bstar": 0.001947,
        "meta_mean_motion_dot": 2.812e-05,
        "meta_mean_motion_ddot": 0,
        "tle_line1": "1 29853U 99025EX  25336.33403630  .00002812  00000+0  19470-2 0  9998",
        "tle_line2": "2 29853  98.4575  98.8144 0160923 251.3676 106.9955 13.93725102955245"
      },
      "geometry": {
        "type": "Point",
        "coordinates": [
          97.9526287847131,
          9.685477894417012
        ]
      }
    },
    {
      "type": "Feature",
      "properties": {
        "norad_id": 29854,
        "name": "FENGYUN 1C DEB",
        "group": "fengyun-1c-debris",
        "lat": -79.72996403779551,
        "lon": -101.55957437096323,
        "alt_km": 1066.5518658058163,
        "timestamp": "2025-12-02T23:34:15.788173+00:00",
        "meta_object_name": "FENGYUN 1C DEB",
        "meta_object_id": "1999-025EY",
        "meta_epoch": "2025-12-02T10:16:51.936096",
        "meta_mean_motion": 13.83331816,
        "meta_eccentricity": 0.0147565,
        "meta_inclination": 98.9274,
        "meta_ra_of_asc_node": 138.084,
        "meta_arg_of_pericenter": 78.527,
        "meta_mean_anomaly": 310.4353,
        "meta_ephemeris_type": 0,
        "meta_classification_type": "U",
        "meta_norad_cat_id": 29854,
        "meta_element_set_no": 999,
        "meta_rev_at_epoch": 95201,
        "meta_bstar": 0.00033234,
        "meta_mean_motion_dot": 3.57e-06,
        "meta_mean_motion_ddot": 0,
        "tle_line1": "1 29854U 99025EY  25336.42837889  .00000357  00000+0  33234-3 0  9993",
        "tle_line2": "2 29854  98.9274 138.0840 0147565  78.5270 310.4353 13.83331816952013"
      },
      "geometry": {
        "type": "Point",
        "coordinates": [
          -101.55957437096323,
          -79.72996403779551
        ]
      }
    },
    {
      "type": "Feature",
      "properties": {
        "norad_id": 29855,
        "name": "FENGYUN 1C DEB",
        "group": "fengyun-1c-debris",
        "lat": 25.49603583270796,
        "lon": 103.61589495712215,
        "alt_km": 863.4570117040103,
        "timestamp": "2025-12-02T23:34:15.788184+00:00",
        "meta_object_name": "FENGYUN 1C DEB",
        "meta_object_id": "1999-025EZ",
        "meta_epoch": "2025-12-02T09:41:34.463904",
        "meta_mean_motion": 14.01461297,
        "meta_eccentricity": 0.0183985,
        "meta_inclination": 98.1807,
        "meta_ra_of_asc_node": 279.1634,
        "meta_arg_of_pericenter": 75.2335,
        "meta_mean_anomaly": 40.9969,
        "meta_ephemeris_type": 0,
        "meta_classification_type": "U",
        "meta_norad_cat_id": 29855,
        "meta_element_set_no": 999,
        "meta_rev_at_epoch": 95567,
        "meta_bstar": 0.0023045,
        "meta_mean_motion_dot": 4e-05,
        "meta_mean_motion_ddot": 0,
        "tle_line1": "1 29855U 99025EZ  25336.40387111  .00004000  00000+0  23045-2 0  9997",
        "tle_line2": "2 29855  98.1807 279.1634 0183985  75.2335  40.9969 14.01461297955679"
      },
      "geometry": {
        "type": "Point",
        "coordinates": [
          103.61589495712215,
          25.49603583270796
        ]
      }
    },
    {
      "type": "Feature",
      "properties": {
        "norad_id": 29856,
        "name": "FENGYUN 1C DEB",
        "group": "fengyun-1c-debris",
        "lat": -55.03627946918972,
        "lon": -121.9710195661678,
        "alt_km": 741.3814326433476,
        "timestamp": "2025-12-02T23:34:15.788193+00:00",
        "meta_object_name": "FENGYUN 1C DEB",
        "meta_object_id": "1999-025FA",
        "meta_epoch": "2025-12-02T06:07:03.080928",
        "meta_mean_motion": 14.47331882,
        "meta_eccentricity": 0.0263468,
        "meta_inclination": 98.6902,
        "meta_ra_of_asc_node": 69.9156,
        "meta_arg_of_pericenter": 329.6496,
        "meta_mean_anomaly": 82.3081,
        "meta_ephemeris_type": 0,
        "meta_classification_type": "U",
        "meta_norad_cat_id": 29856,
        "meta_element_set_no": 999,
        "meta_rev_at_epoch": 96223,
        "meta_bstar": 0.0024495,
        "meta_mean_motion_dot": 0.00013859,
        "meta_mean_motion_ddot": 0,
        "tle_line1": "1 29856U 99025FA  25336.25489677  .00013859  00000+0  24495-2 0  9993",
        "tle_line2": "2 29856  98.6902  69.9156 0263468 329.6496  82.3081 14.47331882962235"
      },
      "geometry": {
        "type": "Point",
        "coordinates": [
          -121.9710195661678,
          -55.03627946918972
        ]
      }
    }
  ]
}